[{"OBJECT_NAME":"FENGYUN 1C DEB","OBJECT_ID":"1999-025QG","EPOCH":"2023-09-15T03:11:20.777568","MEAN_MOTION":13.99662309,"ECCENTRICITY":0.0081077,"INCLINATION":99.1634,"RA_OF_ASC_NODE":306.2289,"ARG_OF_PERICENTER":42.77,"MEAN_ANOMALY":17.527,"EPHEMERIS_TYPE":0,"CLASSIFICATION_TYPE":"U","NORAD_CAT_ID":30079,"ELEMENT_SET_NO":999,"REV_AT_EPOCH":85067,"BSTAR":0.00031559,"MEAN_MOTION_DOT":4.3e-6,"MEAN_MOTION_DDOT":0},{"OBJECT_NAME":"FENGYUN 1C DEB","OBJECT_ID":"1999-025QH","EPOCH":"2023-09-15T13:21:09.218016","MEAN_MOTION":14.09495389,"ECCENTRICITY":0.0134054,"INCLINATION":98.6365,"RA_OF_ASC_NODE":257.9167,"ARG_OF_PERICENTER":226.0543,"MEAN_ANOMALY":262.3637,"EPHEMERIS_TYPE":0,"CLASSIFICATION_TYPE":"U","NORAD_CAT_ID":30080,"ELEMENT_SET_NO":999,"REV_AT_EPOCH":85692,"BSTAR":0.00017405,"MEAN_MOTION_DOT":2.88e-6,"MEAN_MOTION_DDOT":0},{"OBJECT_NAME":"FENGYUN 1C DEB","OBJECT_ID":"1999-025QJ","EPOCH":"2023-09-15T14:38:50.250912","MEAN_MOTION":13.96948677,"ECCENTRICITY":0.0078592,"INCLINATION":98.913,"RA_OF_ASC_NODE":267.9159,"ARG_OF_PERICENTER":79.1687,"MEAN_ANOMALY":37.0052,"EPHEMERIS_TYPE":0,"CLASSIFICATION_TYPE":"U","NORAD_CAT_ID":30081,"ELEMENT_SET_NO":999,"REV_AT_EPOCH":84912,"BSTAR":0.00044736,"MEAN_MOTION_DOT":5.98e-6,"MEAN_MOTION_DDOT":0},{"OBJECT_NAME":"FENGYUN 1C DEB","OBJECT_ID":"1999-025QK","EPOCH":"2023-09-15T10:37:42.936384","MEAN_MOTION":14.79941451,"ECCENTRICITY":0.0137969,"INCLINATION":98.8856,"RA_OF_ASC_NODE":69.8817,"ARG_OF_PERICENTER":301.5822,"MEAN_ANOMALY":108.8411,"EPHEMERIS_TYPE":0,"CLASSIFICATION_TYPE":"U","NORAD_CAT_ID":30082,"ELEMENT_SET_NO":999,"REV_AT_EPOCH":89051,"BSTAR":0.00098971,"MEAN_MOTION_DOT":8.728e-5,"MEAN_MOTION_DDOT":0},{"OBJECT_NAME":"FENGYUN 1C DEB","OBJECT_ID":"1999-025QP","EPOCH":"2023-09-15T13:35:56.613408","MEAN_MOTION":14.02305239,"ECCENTRICITY":0.0061288,"INCLINATION":99.0067,"RA_OF_ASC_NODE":294.1614,"ARG_OF_PERICENTER":252.9772,"MEAN_ANOMALY":262.6242,"EPHEMERIS_TYPE":0,"CLASSIFICATION_TYPE":"U","NORAD_CAT_ID":30086,"ELEMENT_SET_NO":999,"REV_AT_EPOCH":85223,"BSTAR":0.00060565,"MEAN_MOTION_DOT":8.99e-6,"MEAN_MOTION_DDOT":0},{"OBJECT_NAME":"FENGYUN 1C DEB","OBJECT_ID":"1999-025QQ","EPOCH":"2023-09-15T15:56:40.461216","MEAN_MOTION":14.32298778,"ECCENTRICITY":0.0239957,"INCLINATION":98.487,"RA_OF_ASC_NODE":299.4037,"ARG_OF_PERICENTER":38.3323,"MEAN_ANOMALY":83.4508,"EPHEMERIS_TYPE":0,"CLASSIFICATION_TYPE":"U","NORAD_CAT_ID":30087,"ELEMENT_SET_NO":999,"REV_AT_EPOCH":86969,"BSTAR":0.00043347,"MEAN_MOTION_DOT":1.56e-5,"MEAN_MOTION_DDOT":0},{"OBJECT_NAME":"FENGYUN 1C DEB","OBJECT_ID":"1999-025QR","EPOCH":"2023-09-15T14:06:43.510176","MEAN_MOTION":14.31805892,"ECCENTRICITY":0.0212982,"INCLINATION":98.3071,"RA_OF_ASC_NODE":261.7635,"ARG_OF_PERICENTER":170.0834,"MEAN_ANOMALY":314.69,"EPHEMERIS_TYPE":0,"CLASSIFICATION_TYPE":"U","NORAD_CAT_ID":30088,"ELEMENT_SET_NO":999,"REV_AT_EPOCH":86933,"BSTAR":0.0003139,"MEAN_MOTION_DOT":1.031e-5,"MEAN_MOTION_DDOT":0},{"OBJECT_NAME":"FENGYUN 1C DEB","OBJECT_ID":"1999-025QS","EPOCH":"2023-09-15T13:49:38.363808","MEAN_MOTION":14.28412487,"ECCENTRICITY":0.0077195,"INCLINATION":98.9831,"RA_OF_ASC_NODE":132.0718,"ARG_OF_PERICENTER":70.7401,"MEAN_ANOMALY":315.9199,"EPHEMERIS_TYPE":0,"CLASSIFICATION_TYPE":"U","NORAD_CAT_ID":30089,"ELEMENT_SET_NO":999,"REV_AT_EPOCH":86777,"BSTAR":0.00029673,"MEAN_MOTION_DOT":7.2e-6,"MEAN_MOTION_DDOT":0},{"OBJECT_NAME":"FENGYUN 1C DEB","OBJECT_ID":"1999-025QT","EPOCH":"2023-09-15T06:42:16.020576","MEAN_MOTION":14.25473158,"ECCENTRICITY":0.0060705,"INCLINATION":99.3356,"RA_OF_ASC_NODE":1.9645,"ARG_OF_PERICENTER":294.7345,"MEAN_ANOMALY":87.8027,"EPHEMERIS_TYPE":0,"CLASSIFICATION_TYPE":"U","NORAD_CAT_ID":30090,"ELEMENT_SET_NO":999,"REV_AT_EPOCH":86580,"BSTAR":0.00054359,"MEAN_MOTION_DOT":1.259e-5,"MEAN_MOTION_DDOT":0},{"OBJECT_NAME":"FENGYUN 1C DEB","OBJECT_ID":"1999-025QV","EPOCH":"2023-09-15T04:02:40.803648","MEAN_MOTION":14.33832594,"ECCENTRICITY":0.0090989,"INCLINATION":98.8469,"RA_OF_ASC_NODE":39.6879,"ARG_OF_PERICENTER":143.519,"MEAN_ANOMALY":32.2802,"EPHEMERIS_TYPE":0,"CLASSIFICATION_TYPE":"U","NORAD_CAT_ID":30092,"ELEMENT_SET_NO":999,"REV_AT_EPOCH":86994,"BSTAR":0.0011146,"MEAN_MOTION_DOT":3.204e-5,"MEAN_MOTION_DDOT":0},{"OBJECT_NAME":"FENGYUN 1C DEB","OBJECT_ID":"1999-025QW","EPOCH":"2023-09-15T12:29:04.464384","MEAN_MOTION":14.3638424,"ECCENTRICITY":0.0077312,"INCLINATION":98.9447,"RA_OF_ASC_NODE":88.7307,"ARG_OF_PERICENTER":241.6608,"MEAN_ANOMALY":172.9426,"EPHEMERIS_TYPE":0,"CLASSIFICATION_TYPE":"U","NORAD_CAT_ID":30093,"ELEMENT_SET_NO":999,"REV_AT_EPOCH":87012,"BSTAR":0.00097419,"MEAN_MOTION_DOT":2.904e-5,"MEAN_MOTION_DDOT":0},{"OBJECT_NAME":"FENGYUN 1C DEB","OBJECT_ID":"1999-025QY","EPOCH":"2023-09-15T10:07:04.918080","MEAN_MOTION":14.53183517,"ECCENTRICITY":0.0248748,"INCLINATION":99.274,"RA_OF_ASC_NODE":63.2607,"ARG_OF_PERICENTER":318.9566,"MEAN_ANOMALY":39.314,"EPHEMERIS_TYPE":0,"CLASSIFICATION_TYPE":"U","NORAD_CAT_ID":30095,"ELEMENT_SET_NO":999,"REV_AT_EPOCH":87323,"BSTAR":0.0009896,"MEAN_MOTION_DOT":6.112e-5,"MEAN_MOTION_DDOT":0},{"OBJECT_NAME":"FENGYUN 1C DEB","OBJECT_ID":"1999-025QZ","EPOCH":"2023-09-15T12:23:01.949856","MEAN_MOTION":14.29351953,"ECCENTRICITY":0.0083357,"INCLINATION":99.2428,"RA_OF_ASC_NODE":280.4102,"ARG_OF_PERICENTER":79.7738,"MEAN_ANOMALY":281.2829,"EPHEMERIS_TYPE":0,"CLASSIFICATION_TYPE":"U","NORAD_CAT_ID":30096,"ELEMENT_SET_NO":999,"REV_AT_EPOCH":86833,"BSTAR":0.00041906,"MEAN_MOTION_DOT":1.06e-5,"MEAN_MOTION_DDOT":0},{"OBJECT_NAME":"FENGYUN 1C DEB","OBJECT_ID":"1999-025RC","EPOCH":"2023-09-15T11:10:02.256096","MEAN_MOTION":14.23830391,"ECCENTRICITY":0.0064954,"INCLINATION":98.6096,"RA_OF_ASC_NODE":338.5737,"ARG_OF_PERICENTER":113.8182,"MEAN_ANOMALY":309.2112,"EPHEMERIS_TYPE":0,"CLASSIFICATION_TYPE":"U","NORAD_CAT_ID":30099,"ELEMENT_SET_NO":999,"REV_AT_EPOCH":86522,"BSTAR":0.00046704,"MEAN_MOTION_DOT":1.05e-5,"MEAN_MOTION_DDOT":0},{"OBJECT_NAME":"FENGYUN 1C DEB","OBJECT_ID":"1999-025RE","EPOCH":"2023-09-15T00:03:25.030656","MEAN_MOTION":14.70636082,"ECCENTRICITY":0.0025287,"INCLINATION":99.1516,"RA_OF_ASC_NODE":355.0532,"ARG_OF_PERICENTER":254.611,"MEAN_ANOMALY":105.2298,"EPHEMERIS_TYPE":0,"CLASSIFICATION_TYPE":"U","NORAD_CAT_ID":30101,"ELEMENT_SET_NO":999,"REV_AT_EPOCH":87319,"BSTAR":0.0070982,"MEAN_MOTION_DOT":0.00043611,"MEAN_MOTION_DDOT":0},{"OBJECT_NAME":"FENGYUN 1C DEB","OBJECT_ID":"1999-025RF","EPOCH":"2023-09-15T14:51:12.866688","MEAN_MOTION":14.20244903,"ECCENTRICITY":0.0144758,"INCLINATION":98.4469,"RA_OF_ASC_NODE":294.484,"ARG_OF_PERICENTER":225.7883,"MEAN_ANOMALY":251.5704,"EPHEMERIS_TYPE":0,"CLASSIFICATION_TYPE":"U","NORAD_CAT_ID":30102,"ELEMENT_SET_NO":999,"REV_AT_EPOCH":86335,"BSTAR":0.00030872,"MEAN_MOTION_DOT":6.91e-6,"MEAN_MOTION_DDOT":0},{"OBJECT_NAME":"FENGYUN 1C DEB","OBJECT_ID":"1999-025RG","EPOCH":"2023-09-15T09:15:07.541280","MEAN_MOTION":14.21199189,"ECCENTRICITY":0.0066146,"INCLINATION":99.1434,"RA_OF_ASC_NODE":192.7545,"ARG_OF_PERICENTER":299.6197,"MEAN_ANOMALY":178.5583,"EPHEMERIS_TYPE":0,"CLASSIFICATION_TYPE":"U","NORAD_CAT_ID":30103,"ELEMENT_SET_NO":999,"REV_AT_EPOCH":86265,"BSTAR":0.00080819,"MEAN_MOTION_DOT":1.75e-5,"MEAN_MOTION_DDOT":0},{"OBJECT_NAME":"FENGYUN 1C DEB","OBJECT_ID":"1999-025RH","EPOCH":"2023-09-15T13:30:36.980928","MEAN_MOTION":14.21543965,"ECCENTRICITY":0.0079607,"INCLINATION":98.4391,"RA_OF_ASC_NODE":121.3639,"ARG_OF_PERICENTER":345.5347,"MEAN_ANOMALY":71.5738,"EPHEMERIS_TYPE":0,"CLASSIFICATION_TYPE":"U","NORAD_CAT_ID":30104,"ELEMENT_SET_NO":999,"REV_AT_EPOCH":86237,"BSTAR":0.0006852,"MEAN_MOTION_DOT":1.508e-5,"MEAN_MOTION_DDOT":0},{"OBJECT_NAME":"FENGYUN 1C DEB","OBJECT_ID":"1999-025RJ","EPOCH":"2023-09-15T10:36:02.664864","MEAN_MOTION":14.18411453,"ECCENTRICITY":0.0205023,"INCLINATION":98.5443,"RA_OF_ASC_NODE":259.1331,"ARG_OF_PERICENTER":286.1154,"MEAN_ANOMALY":71.7539,"EPHEMERIS_TYPE":0,"CLASSIFICATION_TYPE":"U","NORAD_CAT_ID":30105,"ELEMENT_SET_NO":999,"REV_AT_EPOCH":86135,"BSTAR":0.00048541,"MEAN_MOTION_DOT":1.187e-5,"MEAN_MOTION_DDOT":0},{"OBJECT_NAME":"FENGYUN 1C DEB","OBJECT_ID":"1999-025RK","EPOCH":"2023-09-15T11:25:23.452896","MEAN_MOTION":14.41406205,"ECCENTRICITY":0.0106844,"INCLINATION":98.9795,"RA_OF_ASC_NODE":91.0346,"ARG_OF_PERICENTER":176.9815,"MEAN_ANOMALY":241.8383,"EPHEMERIS_TYPE":0,"CLASSIFICATION_TYPE":"U","NORAD_CAT_ID":30106,"ELEMENT_SET_NO":999,"REV_AT_EPOCH":86597,"BSTAR":0.0032003,"MEAN_MOTION_DOT":0.00011068,"MEAN_MOTION_DDOT":0},{"OBJECT_NAME":"FENGYUN 1C DEB","OBJECT_ID":"1999-025RL","EPOCH":"2023-09-15T08:41:49.962912","MEAN_MOTION":14.13854134,"ECCENTRICITY":0.0129495,"INCLINATION":98.9662,"RA_OF_ASC_NODE":306.931,"ARG_OF_PERICENTER":80.6602,"MEAN_ANOMALY":280.9185,"EPHEMERIS_TYPE":0,"CLASSIFICATION_TYPE":"U","NORAD_CAT_ID":30107,"ELEMENT_SET_NO":999,"REV_AT_EPOCH":85980,"BSTAR":0.00018047,"MEAN_MOTION_DOT":3.26e-6,"MEAN_MOTION_DDOT":0},{"OBJECT_NAME":"FENGYUN 1C DEB","OBJECT_ID":"1999-025RM","EPOCH":"2023-09-15T13:12:55.505952","MEAN_MOTION":14.14985213,"ECCENTRICITY":0.0201663,"INCLINATION":98.608,"RA_OF_ASC_NODE":258.0593,"ARG_OF_PERICENTER":214.0225,"MEAN_ANOMALY":263.511,"EPHEMERIS_TYPE":0,"CLASSIFICATION_TYPE":"U","NORAD_CAT_ID":30108,"ELEMENT_SET_NO":999,"REV_AT_EPOCH":86004,"BSTAR":0.00024837,"MEAN_MOTION_DOT":5.41e-6,"MEAN_MOTION_DDOT":0},{"OBJECT_NAME":"FENGYUN 1C DEB","OBJECT_ID":"1999-025RN","EPOCH":"2023-09-15T14:37:45.090624","MEAN_MOTION":14.14908657,"ECCENTRICITY":0.0175042,"INCLINATION":98.5139,"RA_OF_ASC_NODE":277.4886,"ARG_OF_PERICENTER":73.589,"MEAN_ANOMALY":43.5639,"EPHEMERIS_TYPE":0,"CLASSIFICATION_TYPE":"U","NORAD_CAT_ID":30109,"ELEMENT_SET_NO":999,"REV_AT_EPOCH":85969,"BSTAR":0.00054783,"MEAN_MOTION_DOT":1.187e-5,"MEAN_MOTION_DDOT":0}]
